start=new Date('2022-05-20T00:00:00.000Z').valueOf();
sats=[{"OBJECT_TYPE":"PAYLOAD","CENTER_NAME":"EARTH","COUNTRY_CODE":"US","TIME_SYSTEM":"UTC","ARG_OF_PERICENTER":"52.2336","OBJECT_NAME":"STARLINK-1927","BSTAR":"-0.00013469000000","EPOCH":"2022-05-19T16:17:21.011424","REF_FRAME":"TEME","RA_OF_ASC_NODE":"41.6294","MEAN_ANOMALY":"307.8807","MEAN_MOTION_DOT":"-0.00002287","APOAPSIS":"548.425","LAUNCH_DATE":"2020-11-25","PERIAPSIS":"546.069","NORAD_CAT_ID":"47181","MEAN_MOTION_DDOT":"0.0000000000000","REV_AT_EPOCH":"8286","ELEMENT_SET_NO":"999","SITE":"AFETR","MEAN_MOTION":"15.06388958","FILE":"3453453","MEAN_ELEMENT_THEORY":"SGP4","RCS_SIZE":"LARGE","DECAY_DATE":null,"TLE_LINE1":"1 47181U 20088BM  22139.67871541 -.00002287  00000-0 -13469-3 0  9992","CLASSIFICATION_TYPE":"U","EPHEMERIS_TYPE":"0","GP_ID":"203957600","PERIOD":"95.593","INCLINATION":"53.0559","TLE_LINE2":"2 47181  53.0559  41.6294 0001701  52.2336 307.8807 15.06388958 82866","OBJECT_ID":"2020-088BM","SEMIMAJOR_AXIS":"6925.382","ECCENTRICITY":"0.00017010"},{"BSTAR":"0.00006863400000","OBJECT_NAME":"STARLINK-1952","ARG_OF_PERICENTER":"62.0244","EPOCH":"2022-05-19T18:46:09.555456","TIME_SYSTEM":"UTC","COUNTRY_CODE":"US","CENTER_NAME":"EARTH","OBJECT_TYPE":"PAYLOAD","LAUNCH_DATE":"2021-01-20","PERIAPSIS":"338.891","MEAN_MOTION_DDOT":"0.0000000000000","NORAD_CAT_ID":"47349","APOAPSIS":"340.792","MEAN_MOTION_DOT":"0.00010572","MEAN_ANOMALY":"298.0918","RA_OF_ASC_NODE":"57.9307","REF_FRAME":"TEME","TLE_LINE1":"1 47349U 21005A   22139.78205504  .00010572  00000-0  68634-4 0  9999","CLASSIFICATION_TYPE":"U","RCS_SIZE":"LARGE","FILE":"3453812","MEAN_ELEMENT_THEORY":"SGP4","DECAY_DATE":null,"REV_AT_EPOCH":"7527","ELEMENT_SET_NO":"999","SITE":"AFETR","MEAN_MOTION":"15.76685265","SEMIMAJOR_AXIS":"6717.977","OBJECT_ID":"2021-005A","ECCENTRICITY":"0.00014150","TLE_LINE2":"2 47349  53.0348  57.9307 0001415  62.0244 298.0918 15.76685265 75271","INCLINATION":"53.0348","PERIOD":"91.331","GP_ID":"203988276","EPHEMERIS_TYPE":"0"},{"MEAN_MOTION_DOT":"0.00001894","APOAPSIS":"548.639","MEAN_MOTION_DDOT":"0.0000000000000","NORAD_CAT_ID":"47350","LAUNCH_DATE":"2021-01-20","PERIAPSIS":"545.822","REF_FRAME":"TEME","RA_OF_ASC_NODE":"180.8558","MEAN_ANOMALY":"315.4527","TIME_SYSTEM":"UTC","EPOCH":"2022-05-19T20:24:10.521792","OBJECT_NAME":"STARLINK-2011","ARG_OF_PERICENTER":"44.6626","BSTAR":"0.00014605000000","OBJECT_TYPE":"PAYLOAD","CENTER_NAME":"EARTH","COUNTRY_CODE":"US","TLE_LINE2":"2 47350  53.0558 180.8558 0002034  44.6626 315.4527 15.06394349 73561","ECCENTRICITY":"0.00020340","SEMIMAJOR_AXIS":"6925.366","OBJECT_ID":"2021-005B","EPHEMERIS_TYPE":"0","GP_ID":"203986526","PERIOD":"95.592","INCLINATION":"53.0558","CLASSIFICATION_TYPE":"U","TLE_LINE1":"1 47350U 21005B   22139.85012178  .00001894  00000-0  14605-3 0  9997","SITE":"AFETR","ELEMENT_SET_NO":"999","MEAN_MOTION":"15.06394349","REV_AT_EPOCH":"7356","DECAY_DATE":null,"MEAN_ELEMENT_THEORY":"SGP4","FILE":"3453812","RCS_SIZE":"LARGE"},{"SEMIMAJOR_AXIS":"6925.374","OBJECT_ID":"2021-005C","ECCENTRICITY":"0.00017940","TLE_LINE2":"2 47351  53.0543 142.4948 0001794  57.7065 302.4098 15.06391810 74725","INCLINATION":"53.0543","PERIOD":"95.593","GP_ID":"203961355","EPHEMERIS_TYPE":"0","TLE_LINE1":"1 47351U 21005C   22139.48153500 -.00001121  00000-0 -56405-4 0  9992","CLASSIFICATION_TYPE":"U","MEAN_ELEMENT_THEORY":"SGP4","FILE":"3453594","RCS_SIZE":"LARGE","DECAY_DATE":null,"REV_AT_EPOCH":"7472","SITE":"AFETR","ELEMENT_SET_NO":"999","MEAN_MOTION":"15.06391810","LAUNCH_DATE":"2021-01-20","PERIAPSIS":"545.996","MEAN_MOTION_DDOT":"0.0000000000000","NORAD_CAT_ID":"47351","APOAPSIS":"548.481","MEAN_MOTION_DOT":"-0.00001121","MEAN_ANOMALY":"302.4098","RA_OF_ASC_NODE":"142.4948","REF_FRAME":"TEME","BSTAR":"-0.00005640500000","ARG_OF_PERICENTER":"57.7065","OBJECT_NAME":"STARLINK-2017","EPOCH":"2022-05-19T11:33:24.624000","TIME_SYSTEM":"UTC","COUNTRY_CODE":"US","CENTER_NAME":"EARTH","OBJECT_TYPE":"PAYLOAD"},{"CLASSIFICATION_TYPE":"U","TLE_LINE1":"1 47352U 21005D   22139.83169887 -.00000272  00000-0  65142-6 0  9992","SITE":"AFETR","ELEMENT_SET_NO":"999","MEAN_MOTION":"15.06389033","REV_AT_EPOCH":"7355","DECAY_DATE":null,"RCS_SIZE":"LARGE","FILE":"3453812","MEAN_ELEMENT_THEORY":"SGP4","TLE_LINE2":"2 47352  53.0551 180.9433 0001862  43.3446 316.7690 15.06389033 73551","ECCENTRICITY":"0.00018620","SEMIMAJOR_AXIS":"6925.382","OBJECT_ID":"2021-005D","EPHEMERIS_TYPE":"0","GP_ID":"203988026","INCLINATION":"53.0551","PERIOD":"95.593","TIME_SYSTEM":"UTC","EPOCH":"2022-05-19T19:57:38.782368","OBJECT_NAME":"STARLINK-2034","ARG_OF_PERICENTER":"43.3446","BSTAR":"0.00000065142000","OBJECT_TYPE":"PAYLOAD","CENTER_NAME":"EARTH","COUNTRY_CODE":"US","MEAN_MOTION_DOT":"-0.00000272","APOAPSIS":"548.537","NORAD_CAT_ID":"47352","MEAN_MOTION_DDOT":"0.0000000000000","PERIAPSIS":"545.958","LAUNCH_DATE":"2021-01-20","REF_FRAME":"TEME","RA_OF_ASC_NODE":"180.9433","MEAN_ANOMALY":"316.7690"},{"GP_ID":"203987777","EPHEMERIS_TYPE":"0","INCLINATION":"53.0561","PERIOD":"95.592","TLE_LINE2":"2 47353  53.0561 126.7370 0002228  45.8130 314.3042 15.06397027 74306","ECCENTRICITY":"0.00022280","OBJECT_ID":"2021-005E","SEMIMAJOR_AXIS":"6925.358","SITE":"AFETR","ELEMENT_SET_NO":"999","MEAN_MOTION":"15.06397027","REV_AT_EPOCH":"7430","DECAY_DATE":null,"MEAN_ELEMENT_THEORY":"SGP4","FILE":"3453812","RCS_SIZE":"LARGE","CLASSIFICATION_TYPE":"U","TLE_LINE1":"1 47353U 21005E   22139.65430331 -.00000857  00000-0 -38638-4 0  9996","RA_OF_ASC_NODE":"126.7370","MEAN_ANOMALY":"314.3042","REF_FRAME":"TEME","APOAPSIS":"548.766","MEAN_MOTION_DOT":"-0.00000857","MEAN_MOTION_DDOT":"0.0000000000000","NORAD_CAT_ID":"47353","LAUNCH_DATE":"2021-01-20","PERIAPSIS":"545.680","OBJECT_TYPE":"PAYLOAD","CENTER_NAME":"EARTH","COUNTRY_CODE":"US","TIME_SYSTEM":"UTC","EPOCH":"2022-05-19T15:42:11.805984","BSTAR":"-0.00003863800000","ARG_OF_PERICENTER":"45.8130","OBJECT_NAME":"STARLINK-2045"},{"SEMIMAJOR_AXIS":"6925.273","OBJECT_ID":"2021-005F","ECCENTRICITY":"0.00019230","TLE_LINE2":"2 47354  53.0531 146.3712 0001923  43.9768 316.1373 15.06424626 74032","PERIOD":"95.591","INCLINATION":"53.0531","GP_ID":"203987026","EPHEMERIS_TYPE":"0","TLE_LINE1":"1 47354U 21005F   22139.73352895  .00004114  00000-0  29472-3 0  9997","CLASSIFICATION_TYPE":"U","MEAN_ELEMENT_THEORY":"SGP4","FILE":"3453812","RCS_SIZE":"LARGE","DECAY_DATE":null,"REV_AT_EPOCH":"7403","ELEMENT_SET_NO":"999","SITE":"AFETR","MEAN_MOTION":"15.06424626","PERIAPSIS":"545.806","LAUNCH_DATE":"2021-01-20","NORAD_CAT_ID":"47354","MEAN_MOTION_DDOT":"0.0000000000000","APOAPSIS":"548.470","MEAN_MOTION_DOT":"0.00004114","MEAN_ANOMALY":"316.1373","RA_OF_ASC_NODE":"146.3712","REF_FRAME":"TEME","BSTAR":"0.00029472000000","OBJECT_NAME":"STARLINK-2046","ARG_OF_PERICENTER":"43.9768","EPOCH":"2022-05-19T17:36:16.901280","TIME_SYSTEM":"UTC","COUNTRY_CODE":"US","OBJECT_TYPE":"PAYLOAD","CENTER_NAME":"EARTH"},{"RA_OF_ASC_NODE":"131.5808","MEAN_ANOMALY":"310.3292","REF_FRAME":"TEME","APOAPSIS":"548.549","MEAN_MOTION_DOT":"0.00001439","MEAN_MOTION_DDOT":"0.0000000000000","NORAD_CAT_ID":"47355","PERIAPSIS":"545.897","LAUNCH_DATE":"2021-01-20","OBJECT_TYPE":"PAYLOAD","CENTER_NAME":"EARTH","COUNTRY_CODE":"US","TIME_SYSTEM":"UTC","EPOCH":"2022-05-19T16:31:57.202464","BSTAR":"0.00011551000000","OBJECT_NAME":"STARLINK-2047","ARG_OF_PERICENTER":"49.7864","GP_ID":"203987275","EPHEMERIS_TYPE":"0","PERIOD":"95.592","INCLINATION":"53.0514","TLE_LINE2":"2 47355  53.0514 131.5808 0001915  49.7864 310.3292 15.06396926 74237","ECCENTRICITY":"0.00019150","SEMIMAJOR_AXIS":"6925.358","OBJECT_ID":"2021-005G","SITE":"AFETR","MEAN_MOTION":"15.06396926","ELEMENT_SET_NO":"999","REV_AT_EPOCH":"7423","DECAY_DATE":null,"RCS_SIZE":"LARGE","FILE":"3453812","MEAN_ELEMENT_THEORY":"SGP4","CLASSIFICATION_TYPE":"U","TLE_LINE1":"1 47355U 21005G   22139.68885651  .00001439  00000-0  11551-3 0  9999"},{"REV_AT_EPOCH":"7396","ELEMENT_SET_NO":"999","SITE":"AFETR","MEAN_MOTION":"15.06400571","RCS_SIZE":"LARGE","FILE":"3453812","MEAN_ELEMENT_THEORY":"SGP4","DECAY_DATE":null,"TLE_LINE1":"1 47356U 21005H   22139.73493645  .00001661  00000-0  13041-3 0  9997","CLASSIFICATION_TYPE":"U","EPHEMERIS_TYPE":"0","GP_ID":"203987527","INCLINATION":"53.0532","PERIOD":"95.592","TLE_LINE2":"2 47356  53.0532 151.3744 0001905  49.4832 310.6323 15.06400571 73967","SEMIMAJOR_AXIS":"6925.347","OBJECT_ID":"2021-005H","ECCENTRICITY":"0.00019050","CENTER_NAME":"EARTH","OBJECT_TYPE":"PAYLOAD","COUNTRY_CODE":"US","TIME_SYSTEM":"UTC","OBJECT_NAME":"STARLINK-2049","ARG_OF_PERICENTER":"49.4832","BSTAR":"0.00013041000000","EPOCH":"2022-05-19T17:38:18.509280","REF_FRAME":"TEME","MEAN_ANOMALY":"310.6323","RA_OF_ASC_NODE":"151.3744","MEAN_MOTION_DOT":"0.00001661","APOAPSIS":"548.531","LAUNCH_DATE":"2021-01-20","PERIAPSIS":"545.893","NORAD_CAT_ID":"47356","MEAN_MOTION_DDOT":"0.0000000000000"},{"REV_AT_EPOCH":"7450","ELEMENT_SET_NO":"999","SITE":"AFETR","MEAN_MOTION":"15.06396199","FILE":"3453280","RCS_SIZE":"LARGE","MEAN_ELEMENT_THEORY":"SGP4","DECAY_DATE":null,"TLE_LINE1":"1 47357U 21005J   22139.80957583  .00000994  00000-0  85635-4 0  9999","CLASSIFICATION_TYPE":"U","EPHEMERIS_TYPE":"0","GP_ID":"203952432","PERIOD":"95.592","INCLINATION":"53.0544","TLE_LINE2":"2 47357  53.0544 181.0268 0001654  52.1917 307.9221 15.06396199 74505","SEMIMAJOR_AXIS":"6925.360","OBJECT_ID":"2021-005J","ECCENTRICITY":"0.00016540","CENTER_NAME":"EARTH","OBJECT_TYPE":"PAYLOAD","COUNTRY_CODE":"US","TIME_SYSTEM":"UTC","ARG_OF_PERICENTER":"52.1917","OBJECT_NAME":"STARLINK-2050","BSTAR":"0.00008563500000","EPOCH":"2022-05-19T19:25:47.351712","REF_FRAME":"TEME","MEAN_ANOMALY":"307.9221","RA_OF_ASC_NODE":"181.0268","MEAN_MOTION_DOT":"0.00000994","APOAPSIS":"548.371","LAUNCH_DATE":"2021-01-20","PERIAPSIS":"546.080","MEAN_MOTION_DDOT":"0.0000000000000","NORAD_CAT_ID":"47357"}];
